{
  "type": "FeatureCollection",
  "features": [
    {
      "type": "Feature",
      "properties": {
        "norad_id": 66562,
        "name": "STARLINK-35579",
        "group": "last-30-days",
        "lat": -2.5955896626957586,
        "lon": 123.02838136770522,
        "alt_km": 415.2671579796188,
        "timestamp": "2025-12-11T22:43:46.023727+00:00",
        "meta_object_name": "STARLINK-35579",
        "meta_object_id": "2025-268F",
        "meta_epoch": "2025-12-11T14:00:01.999872",
        "meta_mean_motion": 15.50630066,
        "meta_eccentricity": 0.00015643,
        "meta_inclination": 42.9998,
        "meta_ra_of_asc_node": 127.9447,
        "meta_arg_of_pericenter": 268.7043,
        "meta_mean_anomaly": 214.9089,
        "meta_ephemeris_type": 0,
        "meta_classification_type": "U",
        "meta_norad_cat_id": 66562,
        "meta_element_set_no": 999,
        "meta_rev_at_epoch": 448,
        "meta_bstar": -0.00288493,
        "meta_mean_motion_dot": -0.00166346,
        "meta_mean_motion_ddot": 0,
        "tle_line1": "1 66562U 25268F   25345.58335648 -.00166346  00000+0 -28849-2 0  9999",
        "tle_line2": "2 66562  42.9998 127.9447 0001564 268.7043 214.9089 15.50630066  4489"
      },
      "geometry": {
        "type": "Point",
        "coordinates": [
          123.02838136770522,
          -2.5955896626957586
        ]
      }
    },
    {
      "type": "Feature",
      "properties": {
        "norad_id": 66563,
        "name": "STARLINK-35437",
        "group": "last-30-days",
        "lat": 0.016926907038390827,
        "lon": 125.82550107419222,
        "alt_km": 415.04633407244637,
        "timestamp": "2025-12-11T22:43:46.023737+00:00",
        "meta_object_name": "STARLINK-35437",
        "meta_object_id": "2025-268G",
        "meta_epoch": "2025-12-11T14:00:01.999872",
        "meta_mean_motion": 15.5062557,
        "meta_eccentricity": 0.00015707,
        "meta_inclination": 42.9998,
        "meta_ra_of_asc_node": 127.9352,
        "meta_arg_of_pericenter": 266.3482,
        "meta_mean_anomaly": 221.1006,
        "meta_ephemeris_type": 0,
        "meta_classification_type": "U",
        "meta_norad_cat_id": 66563,
        "meta_element_set_no": 999,
        "meta_rev_at_epoch": 448,
        "meta_bstar": -0.0027559411,
        "meta_mean_motion_dot": -0.00159045,
        "meta_mean_motion_ddot": 0,
        "tle_line1": "1 66563U 25268G   25345.58335648 -.00159045  00000+0 -27559-2 0  9995",
        "tle_line2": "2 66563  42.9998 127.9352 0001570 266.3482 221.1006 15.50625570  4486"
      },
      "geometry": {
        "type": "Point",
        "coordinates": [
          125.82550107419222,
          0.016926907038390827
        ]
      }
    },
    {
      "type": "Feature",
      "properties": {
        "norad_id": 66564,
        "name": "STARLINK-35358",
        "group": "last-30-days",
        "lat": 1.3240990732256699,
        "lon": 127.22398295672548,
        "alt_km": 414.9224118938255,
        "timestamp": "2025-12-11T22:43:46.023747+00:00",
        "meta_object_name": "STARLINK-35358",
        "meta_object_id": "2025-268H",
        "meta_epoch": "2025-12-11T14:00:01.999872",
        "meta_mean_motion": 15.50629289,
        "meta_eccentricity": 0.00015496,
        "meta_inclination": 42.9997,
        "meta_ra_of_asc_node": 127.9305,
        "meta_arg_of_pericenter": 266.0209,
        "meta_mean_anomaly": 223.3445,
        "meta_ephemeris_type": 0,
        "meta_classification_type": "U",
        "meta_norad_cat_id": 66564,
        "meta_element_set_no": 999,
        "meta_rev_at_epoch": 443,
        "meta_bstar": -0.0028946126,
        "meta_mean_motion_dot": -0.00166887,
        "meta_mean_motion_ddot": 0,
        "tle_line1": "1 66564U 25268H   25345.58335648 -.00166887  00000+0 -28946-2 0  9999",
        "tle_line2": "2 66564  42.9997 127.9305 0001549 266.0209 223.3445 15.50629289  4431"
      },
      "geometry": {
        "type": "Point",
        "coordinates": [
          127.22398295672548,
          1.3240990732256699
        ]
      }
    },
    {
      "type": "Feature",
      "properties": {
        "norad_id": 66565,
        "name": "STARLINK-35893",
        "group": "last-30-days",
        "lat": 2.631605652311748,
        "lon": 128.62486505386954,
        "alt_km": 414.7919116708863,
        "timestamp": "2025-12-11T22:43:46.023759+00:00",
        "meta_object_name": "STARLINK-35893",
        "meta_object_id": "2025-268J",
        "meta_epoch": "2025-12-11T14:00:01.999872",
        "meta_mean_motion": 15.5062588,
        "meta_eccentricity": 0.00015826,
        "meta_inclination": 42.9998,
        "meta_ra_of_asc_node": 127.9255,
        "meta_arg_of_pericenter": 265.5569,
        "meta_mean_anomaly": 225.7291,
        "meta_ephemeris_type": 0,
        "meta_classification_type": "U",
        "meta_norad_cat_id": 66565,
        "meta_element_set_no": 999,
        "meta_rev_at_epoch": 448,
        "meta_bstar": -0.0028054036,
        "meta_mean_motion_dot": -0.00161839,
        "meta_mean_motion_ddot": 0,
        "tle_line1": "1 66565U 25268J   25345.58335648 -.00161839  00000+0 -28054-2 0  9992",
        "tle_line2": "2 66565  42.9998 127.9255 0001582 265.5569 225.7291 15.50625880  4480"
      },
      "geometry": {
        "type": "Point",
        "coordinates": [
          128.62486505386954,
          2.631605652311748
        ]
      }
    },
    {
      "type": "Feature",
      "properties": {
        "norad_id": 66566,
        "name": "STARLINK-35871",
        "group": "last-30-days",
        "lat": 3.9055511441880593,
        "lon": 129.99431453133863,
        "alt_km": 414.2301995490534,
        "timestamp": "2025-12-11T22:43:46.023771+00:00",
        "meta_object_name": "STARLINK-35871",
        "meta_object_id": "2025-268K",
        "meta_epoch": "2025-12-11T14:00:01.999872",
        "meta_mean_motion": 15.50485517,
        "meta_eccentricity": 0.00014999,
        "meta_inclination": 42.9998,
        "meta_ra_of_asc_node": 127.9205,
        "meta_arg_of_pericenter": 284.7393,
        "meta_mean_anomaly": 208.4981,
        "meta_ephemeris_type": 0,
        "meta_classification_type": "U",
        "meta_norad_cat_id": 66566,
        "meta_element_set_no": 999,
        "meta_rev_at_epoch": 448,
        "meta_bstar": 0.0010019731,
        "meta_mean_motion_dot": 0.00058685,
        "meta_mean_motion_ddot": 0,
        "tle_line1": "1 66566U 25268K   25345.58335648  .00058685  00000+0  10020-2 0  9999",
        "tle_line2": "2 66566  42.9998 127.9205 0001499 284.7393 208.4981 15.50485517  4486"
      },
      "geometry": {
        "type": "Point",
        "coordinates": [
          129.99431453133863,
          3.9055511441880593
        ]
      }
    },
    {
      "type": "Feature",
      "properties": {
        "norad_id": 66567,
        "name": "STARLINK-35825",
        "group": "last-30-days",
        "lat": 5.246143644708283,
        "lon": 131.4429926766516,
        "alt_km": 414.2772371670944,
        "timestamp": "2025-12-11T22:43:46.023781+00:00",
        "meta_object_name": "STARLINK-35825",
        "meta_object_id": "2025-268L",
        "meta_epoch": "2025-12-11T14:00:01.999872",
        "meta_mean_motion": 15.50679698,
        "meta_eccentricity": 0.00012817,
        "meta_inclination": 42.9997,
        "meta_ra_of_asc_node": 127.9161,
        "meta_arg_of_pericenter": 277.3844,
        "meta_mean_anomaly": 217.7121,
        "meta_ephemeris_type": 0,
        "meta_classification_type": "U",
        "meta_norad_cat_id": 66567,
        "meta_element_set_no": 999,
        "meta_rev_at_epoch": 448,
        "meta_bstar": -0.0039771129,
        "meta_mean_motion_dot": -0.00227815,
        "meta_mean_motion_ddot": 0,
        "tle_line1": "1 66567U 25268L   25345.58335648 -.00227815  00000+0 -39771-2 0  9999",
        "tle_line2": "2 66567  42.9997 127.9161 0001281 277.3844 217.7121 15.50679698  4489"
      },
      "geometry": {
        "type": "Point",
        "coordinates": [
          131.4429926766516,
          5.246143644708283
        ]
      }
    },
    {
      "type": "Feature",
      "properties": {
        "norad_id": 66568,
        "name": "STARLINK-35803",
        "group": "last-30-days",
        "lat": 6.537315967382512,
        "lon": 132.84652841664482,
        "alt_km": 414.0082385698861,
        "timestamp": "2025-12-11T22:43:46.023791+00:00",
        "meta_object_name": "STARLINK-35803",
        "meta_object_id": "2025-268M",
        "meta_epoch": "2025-12-11T14:00:01.999872",
        "meta_mean_motion": 15.50621254,
        "meta_eccentricity": 0.00016649,
        "meta_inclination": 42.9997,
        "meta_ra_of_asc_node": 127.9104,
        "meta_arg_of_pericenter": 283.056,
        "meta_mean_anomaly": 213.9803,
        "meta_ephemeris_type": 0,
        "meta_classification_type": "U",
        "meta_norad_cat_id": 66568,
        "meta_element_set_no": 999,
        "meta_rev_at_epoch": 448,
        "meta_bstar": -0.0026271812,
        "meta_mean_motion_dot": -0.00151749,
        "meta_mean_motion_ddot": 0,
        "tle_line1": "1 66568U 25268M   25345.58335648 -.00151749  00000+0 -26272-2 0  9994",
        "tle_line2": "2 66568  42.9997 127.9104 0001664 283.0560 213.9803 15.50621254  4481"
      },
      "geometry": {
        "type": "Point",
        "coordinates": [
          132.84652841664482,
          6.537315967382512
        ]
      }
    }
  ]
}